[{"OBJECT_NAME":"STARLINK-34693","OBJECT_ID":"2025-150D","EPOCH":"2026-03-09T13:35:23.471232","MEAN_MOTION":14.98331008,"ECCENTRICITY":0.0004041,"INCLINATION":70.0011,"RA_OF_ASC_NODE":134.9527,"ARG_OF_PERICENTER":272.5414,"MEAN_ANOMALY":87.5283,"EPHEMERIS_TYPE":0,"CLASSIFICATION_TYPE":"U","NORAD_CAT_ID":64793,"ELEMENT_SET_NO":999,"REV_AT_EPOCH":3649,"BSTAR":0.00037361,"MEAN_MOTION_DOT":4.368e-5,"MEAN_MOTION_DDOT":0},{"OBJECT_NAME":"CZ-2D R\/B","OBJECT_ID":"2018-048C","EPOCH":"2026-03-09T15:04:20.679168","MEAN_MOTION":14.94740995,"ECCENTRICITY":0.001273,"INCLINATION":97.5865,"RA_OF_ASC_NODE":101.6245,"ARG_OF_PERICENTER":129.2773,"MEAN_ANOMALY":230.9579,"EPHEMERIS_TYPE":0,"CLASSIFICATION_TYPE":"U","NORAD_CAT_ID":43486,"ELEMENT_SET_NO":999,"REV_AT_EPOCH":42028,"BSTAR":0.00054527,"MEAN_MOTION_DOT":5.879e-5,"MEAN_MOTION_DDOT":0}]
